{
  "type": "FeatureCollection",
  "features": [
    {
      "type": "Feature",
      "properties": {
        "norad_id": 33835,
        "name": "COSMOS 2251 DEB",
        "group": "cosmos-2251-debris",
        "lat": -2.086435522599632,
        "lon": -75.68150950595462,
        "alt_km": 653.5793044621287,
        "timestamp": "2025-12-11T08:58:27.518043+00:00",
        "meta_object_name": "COSMOS 2251 DEB",
        "meta_object_id": "1993-036CC",
        "meta_epoch": "2025-12-11T02:23:32.254368",
        "meta_mean_motion": 14.62220271,
        "meta_eccentricity": 0.0054867,
        "meta_inclination": 74.0571,
        "meta_ra_of_asc_node": 104.2461,
        "meta_arg_of_pericenter": 158.224,
        "meta_mean_anomaly": 20.5091,
        "meta_ephemeris_type": 0,
        "meta_classification_type": "U",
        "meta_norad_cat_id": 33835,
        "meta_element_set_no": 999,
        "meta_rev_at_epoch": 88765,
        "meta_bstar": 0.0017578,
        "meta_mean_motion_dot": 9.031e-05,
        "meta_mean_motion_ddot": 0,
        "tle_line1": "1 33835U 93036CC  25345.09967887  .00009031  00000+0  17578-2 0  9998",
        "tle_line2": "2 33835  74.0571 104.2461 0054867 158.2240  20.5091 14.62220271887656"
      },
      "geometry": {
        "type": "Point",
        "coordinates": [
          -75.68150950595462,
          -2.086435522599632
        ]
      }
    },
    {
      "type": "Feature",
      "properties": {
        "norad_id": 33836,
        "name": "COSMOS 2251 DEB",
        "group": "cosmos-2251-debris",
        "lat": 56.09525863143643,
        "lon": 56.36744719875568,
        "alt_km": 609.2298563005443,
        "timestamp": "2025-12-11T08:58:27.518053+00:00",
        "meta_object_name": "COSMOS 2251 DEB",
        "meta_object_id": "1993-036CD",
        "meta_epoch": "2025-12-11T05:54:35.904960",
        "meta_mean_motion": 14.79570931,
        "meta_eccentricity": 0.0022513,
        "meta_inclination": 73.9971,
        "meta_ra_of_asc_node": 261.8975,
        "meta_arg_of_pericenter": 115.7918,
        "meta_mean_anomaly": 44.6217,
        "meta_ephemeris_type": 0,
        "meta_classification_type": "U",
        "meta_norad_cat_id": 33836,
        "meta_element_set_no": 999,
        "meta_rev_at_epoch": 64066,
        "meta_bstar": 0.0020142,
        "meta_mean_motion_dot": 0.00015149,
        "meta_mean_motion_ddot": 0,
        "tle_line1": "1 33836U 93036CD  25345.24624890  .00015149  00000+0  20142-2 0  9998",
        "tle_line2": "2 33836  73.9971 261.8975 0022513 115.7918  44.6217 14.79570931640666"
      },
      "geometry": {
        "type": "Point",
        "coordinates": [
          56.36744719875568,
          56.09525863143643
        ]
      }
    },
    {
      "type": "Feature",
      "properties": {
        "norad_id": 33837,
        "name": "COSMOS 2251 DEB",
        "group": "cosmos-2251-debris",
        "lat": -57.19195801192126,
        "lon": -95.42555760876498,
        "alt_km": 710.3394868954756,
        "timestamp": "2025-12-11T08:58:27.518064+00:00",
        "meta_object_name": "COSMOS 2251 DEB",
        "meta_object_id": "1993-036CE",
        "meta_epoch": "2025-12-11T04:33:14.973696",
        "meta_mean_motion": 14.50696047,
        "meta_eccentricity": 0.0035834,
        "meta_inclination": 74.0131,
        "meta_ra_of_asc_node": 58.5161,
        "meta_arg_of_pericenter": 280.4788,
        "meta_mean_anomaly": 79.2335,
        "meta_ephemeris_type": 0,
        "meta_classification_type": "U",
        "meta_norad_cat_id": 33837,
        "meta_element_set_no": 999,
        "meta_rev_at_epoch": 88773,
        "meta_bstar": 0.00040535,
        "meta_mean_motion_dot": 1.578e-05,
        "meta_mean_motion_ddot": 0,
        "tle_line1": "1 33837U 93036CE  25345.18975664  .00001578  00000+0  40535-3 0  9990",
        "tle_line2": "2 33837  74.0131  58.5161 0035834 280.4788  79.2335 14.50696047887732"
      },
      "geometry": {
        "type": "Point",
        "coordinates": [
          -95.42555760876498,
          -57.19195801192126
        ]
      }
    },
    {
      "type": "Feature",
      "properties": {
        "norad_id": 33838,
        "name": "COSMOS 2251 DEB",
        "group": "cosmos-2251-debris",
        "lat": 51.898206020690736,
        "lon": -49.038529757403566,
        "alt_km": 742.6311568791652,
        "timestamp": "2025-12-11T08:58:27.518074+00:00",
        "meta_object_name": "COSMOS 2251 DEB",
        "meta_object_id": "1993-036CF",
        "meta_epoch": "2025-12-11T03:59:33.052128",
        "meta_mean_motion": 14.48355273,
        "meta_eccentricity": 0.0027449,
        "meta_inclination": 74.0364,
        "meta_ra_of_asc_node": 152.76,
        "meta_arg_of_pericenter": 274.8383,
        "meta_mean_anomaly": 208.4525,
        "meta_ephemeris_type": 0,
        "meta_classification_type": "U",
        "meta_norad_cat_id": 33838,
        "meta_element_set_no": 999,
        "meta_rev_at_epoch": 88546,
        "meta_bstar": 0.00063313,
        "meta_mean_motion_dot": 2.353e-05,
        "meta_mean_motion_ddot": 0,
        "tle_line1": "1 33838U 93036CF  25345.16635477  .00002353  00000+0  63313-3 0  9995",
        "tle_line2": "2 33838  74.0364 152.7600 0027449 274.8383 208.4525 14.48355273885462"
      },
      "geometry": {
        "type": "Point",
        "coordinates": [
          -49.038529757403566,
          51.898206020690736
        ]
      }
    },
    {
      "type": "Feature",
      "properties": {
        "norad_id": 33839,
        "name": "COSMOS 2251 DEB",
        "group": "cosmos-2251-debris",
        "lat": -26.024303467634457,
        "lon": -158.92817176448597,
        "alt_km": 625.4203498263369,
        "timestamp": "2025-12-11T08:58:27.518085+00:00",
        "meta_object_name": "COSMOS 2251 DEB",
        "meta_object_id": "1993-036CG",
        "meta_epoch": "2025-12-11T01:35:09.922848",
        "meta_mean_motion": 14.64413203,
        "meta_eccentricity": 0.0085072,
        "meta_inclination": 74.0389,
        "meta_ra_of_asc_node": 209.6959,
        "meta_arg_of_pericenter": 322.1485,
        "meta_mean_anomaly": 188.3731,
        "meta_ephemeris_type": 0,
        "meta_classification_type": "U",
        "meta_norad_cat_id": 33839,
        "meta_element_set_no": 999,
        "meta_rev_at_epoch": 89555,
        "meta_bstar": 0.00035805,
        "meta_mean_motion_dot": 1.963e-05,
        "meta_mean_motion_ddot": 0,
        "tle_line1": "1 33839U 93036CG  25345.06608707  .00001963  00000+0  35805-3 0  9992",
        "tle_line2": "2 33839  74.0389 209.6959 0085072 322.1485 188.3731 14.64413203895557"
      },
      "geometry": {
        "type": "Point",
        "coordinates": [
          -158.92817176448597,
          -26.024303467634457
        ]
      }
    },
    {
      "type": "Feature",
      "properties": {
        "norad_id": 33841,
        "name": "COSMOS 2251 DEB",
        "group": "cosmos-2251-debris",
        "lat": -13.371792292601935,
        "lon": 104.45847014289781,
        "alt_km": 784.0061620351617,
        "timestamp": "2025-12-11T08:58:27.518095+00:00",
        "meta_object_name": "COSMOS 2251 DEB",
        "meta_object_id": "1993-036CJ",
        "meta_epoch": "2025-12-10T07:46:17.469120",
        "meta_mean_motion": 14.37855141,
        "meta_eccentricity": 0.0020427,
        "meta_inclination": 74.0377,
        "meta_ra_of_asc_node": 282.4898,
        "meta_arg_of_pericenter": 3.3922,
        "meta_mean_anomaly": 156.9543,
        "meta_ephemeris_type": 0,
        "meta_classification_type": "U",
        "meta_norad_cat_id": 33841,
        "meta_element_set_no": 999,
        "meta_rev_at_epoch": 88079,
        "meta_bstar": 0.00041232,
        "meta_mean_motion_dot": 1.22e-05,
        "meta_mean_motion_ddot": 0,
        "tle_line1": "1 33841U 93036CJ  25344.32381330  .00001220  00000+0  41232-3 0  9990",
        "tle_line2": "2 33841  74.0377 282.4898 0020427   3.3922 156.9543 14.37855141880798"
      },
      "geometry": {
        "type": "Point",
        "coordinates": [
          104.45847014289781,
          -13.371792292601935
        ]
      }
    },
    {
      "type": "Feature",
      "properties": {
        "norad_id": 33842,
        "name": "COSMOS 2251 DEB",
        "group": "cosmos-2251-debris",
        "lat": 60.87294713601999,
        "lon": -106.89412859245176,
        "alt_km": 746.4650630149181,
        "timestamp": "2025-12-11T08:58:27.518120+00:00",
        "meta_object_name": "COSMOS 2251 DEB",
        "meta_object_id": "1993-036CK",
        "meta_epoch": "2025-12-11T02:01:01.284096",
        "meta_mean_motion": 14.42692078,
        "meta_eccentricity": 0.0047247,
        "meta_inclination": 74.033,
        "meta_ra_of_asc_node": 222.7249,
        "meta_arg_of_pericenter": 330.387,
        "meta_mean_anomaly": 29.4612,
        "meta_ephemeris_type": 0,
        "meta_classification_type": "U",
        "meta_norad_cat_id": 33842,
        "meta_element_set_no": 999,
        "meta_rev_at_epoch": 88313,
        "meta_bstar": 0.00043655,
        "meta_mean_motion_dot": 1.445e-05,
        "meta_mean_motion_ddot": 0,
        "tle_line1": "1 33842U 93036CK  25345.08404264  .00001445  00000+0  43655-3 0  9997",
        "tle_line2": "2 33842  74.0330 222.7249 0047247 330.3870  29.4612 14.42692078883135"
      },
      "geometry": {
        "type": "Point",
        "coordinates": [
          -106.89412859245176,
          60.87294713601999
        ]
      }
    }
  ]
}